[
    {
        "Altitude(m)": 570115.1648750557,
        "Argument of Periapsis(deg)": 0.006622991110713501,
        "Eccentricity": 0.0,
        "Inclination(deg)": 53.0,
        "Latitude(deg)": -48.76475855571427,
        "Longitude(deg)": 25.46574353591617,
        "Mean Anomaly(deg)": -69.90840713242238,
        "RAAN(deg)": 184.990143368528,
        "Satellite Name": "Starlink Shell 1 831",
        "Satellite Number": 831,
        "Semi-Major Axis(m)": 6931778.249405717,
        "Time(s)": 190
    },
    {
        "Altitude(m)": 570009.6007481411,
        "Argument of Periapsis(deg)": 0.0069715695902247375,
        "Eccentricity": 0.0,
        "Inclination(deg)": 53.0,
        "Latitude(deg)": -48.502516505447524,
        "Longitude(deg)": 26.280613841374254,
        "Mean Anomaly(deg)": -69.28157592886572,
        "RAAN(deg)": 184.98962459845055,
        "Satellite Name": "Starlink Shell 1 831",
        "Satellite Number": 831,
        "Semi-Major Axis(m)": 6931778.249405717,
        "Time(s)": 200
    },
    {
        "Altitude(m)": 569901.2851385459,
        "Argument of Periapsis(deg)": 0.007320148069735974,
        "Eccentricity": 0.0,
        "Inclination(deg)": 53.0,
        "Latitude(deg)": -48.2339587838505,
        "Longitude(deg)": 27.086610386109022,
        "Mean Anomaly(deg)": -68.65474472530897,
        "RAAN(deg)": 184.98910582837306,
        "Satellite Name": "Starlink Shell 1 831",
        "Satellite Number": 831,
        "Semi-Major Axis(m)": 6931778.249405717,
        "Time(s)": 210
    },
    {
        "Altitude(m)": 569790.2609738306,
        "Argument of Periapsis(deg)": 0.007668726549247212,
        "Eccentricity": 0.0,
        "Inclination(deg)": 53.0,
        "Latitude(deg)": -47.95920833341956,
        "Longitude(deg)": 27.883703617406276,
        "Mean Anomaly(deg)": -68.0279135217523,
        "RAAN(deg)": 184.9885870582956,
        "Satellite Name": "Starlink Shell 1 831",
        "Satellite Number": 831,
        "Semi-Major Axis(m)": 6931778.249405717,
        "Time(s)": 220
    },
    {
        "Altitude(m)": 569676.5722356978,
        "Argument of Periapsis(deg)": 0.00801730502875845,
        "Eccentricity": 0.0,
        "Inclination(deg)": 53.0,
        "Latitude(deg)": -47.678387746128166,
        "Longitude(deg)": 28.671875671084827,
        "Mean Anomaly(deg)": -67.40108231819552,
        "RAAN(deg)": 184.9880682882181,
        "Satellite Name": "Starlink Shell 1 831",
        "Satellite Number": 831,
        "Semi-Major Axis(m)": 6931778.249405717,
        "Time(s)": 230
    },
    {
        "Altitude(m)": 569560.2639407766,
        "Argument of Periapsis(deg)": 0.008365883508269684,
        "Eccentricity": 0.0,
        "Inclination(deg)": 53.0,
        "Latitude(deg)": -47.391619100981806,
        "Longitude(deg)": 29.45112033541072,
        "Mean Anomaly(deg)": -66.77425111463877,
        "RAAN(deg)": 184.98754951814064,
        "Satellite Name": "Starlink Shell 1 831",
        "Satellite Number": 831,
        "Semi-Major Axis(m)": 6931778.249405717,
        "Time(s)": 240
    },
    {
        "Altitude(m)": 569441.3821209581,
        "Argument of Periapsis(deg)": 0.008714461987780921,
        "Eccentricity": 0.0,
        "Inclination(deg)": 53.0,
        "Latitude(deg)": -47.09902381253419,
        "Longitude(deg)": 30.221441496266955,
        "Mean Anomaly(deg)": -66.14741991108214,
        "RAAN(deg)": 184.9870307480632,
        "Satellite Name": "Starlink Shell 1 831",
        "Satellite Number": 831,
        "Semi-Major Axis(m)": 6931778.249405717,
        "Time(s)": 250
    },
    {
        "Altitude(m)": 569319.9738032663,
        "Argument of Periapsis(deg)": 0.009063040467292158,
        "Eccentricity": 0.0,
        "Inclination(deg)": 53.0,
        "Latitude(deg)": -46.80072249024657,
        "Longitude(deg)": 30.982853092735716,
        "Mean Anomaly(deg)": -65.52058870752546,
        "RAAN(deg)": 184.98651197798569,
        "Satellite Name": "Starlink Shell 1 831",
        "Satellite Number": 831,
        "Semi-Major Axis(m)": 6931778.249405717,
        "Time(s)": 260
    },
    {
        "Altitude(m)": 569196.0869892912,
        "Argument of Periapsis(deg)": 0.009411618946803396,
        "Eccentricity": 0.0,
        "Inclination(deg)": 53.0,
        "Latitude(deg)": -46.49683480852062,
        "Longitude(deg)": 31.73537907334542,
        "Mean Anomaly(deg)": -64.89375750396869,
        "RAAN(deg)": 184.98599320790825,
        "Satellite Name": "Starlink Shell 1 831",
        "Satellite Number": 831,
        "Semi-Major Axis(m)": 6931778.249405717,
        "Time(s)": 270
    },
    {
        "Altitude(m)": 569069.7706341698,
        "Argument of Periapsis(deg)": 0.009760197426314633,
        "Eccentricity": 0.0,
        "Inclination(deg)": 53.0,
        "Latitude(deg)": -46.18747938718382,
        "Longitude(deg)": 32.47905184294943,
        "Mean Anomaly(deg)": -64.26692630041194,
        "RAAN(deg)": 184.9854744378308,
        "Satellite Name": "Starlink Shell 1 831",
        "Satellite Number": 831,
        "Semi-Major Axis(m)": 6931778.249405717,
        "Time(s)": 280
    },
    {
        "Altitude(m)": 568941.0746251474,
        "Argument of Periapsis(deg)": 0.01010877590582587,
        "Eccentricity": 0.0,
        "Inclination(deg)": 53.0,
        "Latitude(deg)": -45.8727736821549,
        "Longitude(deg)": 33.21391222853151,
        "Mean Anomaly(deg)": -63.64009509685527,
        "RAAN(deg)": 184.9849556677533,
        "Satellite Name": "Starlink Shell 1 831",
        "Satellite Number": 831,
        "Semi-Major Axis(m)": 6931778.249405717,
        "Time(s)": 290
    },
    {
        "Altitude(m)": 568810.0497597277,
        "Argument of Periapsis(deg)": 0.010457354385337106,
        "Eccentricity": 0.0,
        "Inclination(deg)": 53.0,
        "Latitude(deg)": -45.552833885987106,
        "Longitude(deg)": 33.94000945333693,
        "Mean Anomaly(deg)": -63.01326389329852,
        "RAAN(deg)": 184.9844368976758,
        "Satellite Name": "Starlink Shell 1 831",
        "Satellite Number": 831,
        "Semi-Major Axis(m)": 6931778.249405717,
        "Time(s)": 300
    },
    {
        "Altitude(m)": 568676.7477233695,
        "Argument of Periapsis(deg)": 0.010805932864848343,
        "Eccentricity": 0.0,
        "Inclination(deg)": 53.0,
        "Latitude(deg)": -45.22777483795557,
        "Longitude(deg)": 34.65739960845438,
        "Mean Anomaly(deg)": -62.38643268974189,
        "RAAN(deg)": 184.98391812759834,
        "Satellite Name": "Starlink Shell 1 831",
        "Satellite Number": 831,
        "Semi-Major Axis(m)": 6931778.249405717,
        "Time(s)": 310
    },
    {
        "Altitude(m)": 568541.2210668393,
        "Argument of Periapsis(deg)": 0.01115451134435958,
        "Eccentricity": 0.0,
        "Inclination(deg)": 53.0,
        "Latitude(deg)": -44.89770994332058,
        "Longitude(deg)": 35.36614564933316,
        "Mean Anomaly(deg)": -61.75960148618509,
        "RAAN(deg)": 184.98339935752085,
        "Satellite Name": "Starlink Shell 1 831",
        "Satellite Number": 831,
        "Semi-Major Axis(m)": 6931778.249405717,
        "Time(s)": 320
    },
    {
        "Altitude(m)": 568403.5231831179,
        "Argument of Periapsis(deg)": 0.011503089823870818,
        "Eccentricity": 0.0,
        "Inclination(deg)": 53.0,
        "Latitude(deg)": -44.56275110138884,
        "Longitude(deg)": 36.066317405848615,
        "Mean Anomaly(deg)": -61.13277028262844,
        "RAAN(deg)": 184.9828805874434,
        "Satellite Name": "Starlink Shell 1 831",
        "Satellite Number": 831,
        "Semi-Major Axis(m)": 6931778.249405717,
        "Time(s)": 330
    },
    {
        "Altitude(m)": 568263.7082839499,
        "Argument of Periapsis(deg)": 0.011851668303382053,
        "Eccentricity": 0.0,
        "Inclination(deg)": 53.0,
        "Latitude(deg)": -44.223008641975916,
        "Longitude(deg)": 36.75799009430146,
        "Mean Anomaly(deg)": -60.505939079071695,
        "RAAN(deg)": 184.98236181736593,
        "Satellite Name": "Starlink Shell 1 831",
        "Satellite Number": 831,
        "Semi-Major Axis(m)": 6931778.249405717,
        "Time(s)": 340
    },
    {
        "Altitude(m)": 568121.8313760065,
        "Argument of Periapsis(deg)": 0.012200246782893292,
        "Eccentricity": 0.0,
        "Inclination(deg)": 53.0,
        "Latitude(deg)": -43.87859126985892,
        "Longitude(deg)": 37.441244358124145,
        "Mean Anomaly(deg)": -59.879107875515025,
        "RAAN(deg)": 184.98184304728844,
        "Satellite Name": "Starlink Shell 1 831",
        "Satellite Number": 831,
        "Semi-Major Axis(m)": 6931778.249405717,
        "Time(s)": 350
    },
    {
        "Altitude(m)": 567977.948236697,
        "Argument of Periapsis(deg)": 0.012548825262404526,
        "Eccentricity": 0.0,
        "Inclination(deg)": 53.0,
        "Latitude(deg)": -43.52960601680633,
        "Longitude(deg)": 38.116166325254255,
        "Mean Anomaly(deg)": -59.25227667195828,
        "RAAN(deg)": 184.98132427721097,
        "Satellite Name": "Starlink Shell 1 831",
        "Satellite Number": 831,
        "Semi-Major Axis(m)": 6931778.249405717,
        "Time(s)": 360
    },
    {
        "Altitude(m)": 567832.1153896126,
        "Argument of Periapsis(deg)": 0.012897403741915765,
        "Eccentricity": 0.0,
        "Inclination(deg)": 53.0,
        "Latitude(deg)": -43.17615820077179,
        "Longitude(deg)": 38.782846169939596,
        "Mean Anomaly(deg)": -58.62544546840151,
        "RAAN(deg)": 184.98080550713354,
        "Satellite Name": "Starlink Shell 1 831",
        "Satellite Number": 831,
        "Semi-Major Axis(m)": 6931778.249405717,
        "Time(s)": 370
    }
]